CCSDS_OMM_VERS = 2.0
CREATION_DATE  = 
ORIGINATOR     = 

OBJECT_NAME    = KOMPSAT-7
OBJECT_ID      = 2025-279A
CENTER_NAME    = EARTH
REF_FRAME      = TEME
TIME_SYSTEM    = UTC
MEAN_ELEMENT_THEORY = SGP/SGP4

EPOCH          = 2025-12-10T22:33:37.948320
MEAN_MOTION    = 14.98663462
ECCENTRICITY   = .00081382
INCLINATION    = 97.6403
RA_OF_ASC_NODE = 290.8429
ARG_OF_PERICENTER = 225.1090
MEAN_ANOMALY   = 134.9473

EPHEMERIS_TYPE = 0
CLASSIFICATION_TYPE = U
NORAD_CAT_ID   = 66820
ELEMENT_SET_NO = 999
REV_AT_EPOCH   = 138
BSTAR          = .3749417E-3
MEAN_MOTION_DOT = .4449E-4
MEAN_MOTION_DDOT = 0

CCSDS_OMM_VERS = 2.0
CREATION_DATE  = 
ORIGINATOR     = 

OBJECT_NAME    = STARLINK-35966
OBJECT_ID      = 2025-280A
CENTER_NAME    = EARTH
REF_FRAME      = TEME
TIME_SYSTEM    = UTC
MEAN_ELEMENT_THEORY = SGP/SGP4

EPOCH          = 2025-12-10T16:00:01.999584
MEAN_MOTION    = 15.87163122
ECCENTRICITY   = .00039131
INCLINATION    = 69.9939
RA_OF_ASC_NODE = 204.7907
ARG_OF_PERICENTER = 271.1294
MEAN_ANOMALY   = 158.5043

EPHEMERIS_TYPE = 0
CLASSIFICATION_TYPE = U
NORAD_CAT_ID   = 66821
ELEMENT_SET_NO = 999
REV_AT_EPOCH   = 256
BSTAR          = -.67612749E-2
MEAN_MOTION_DOT = -.1557078E-1
MEAN_MOTION_DDOT = 0

CCSDS_OMM_VERS = 2.0
CREATION_DATE  = 
ORIGINATOR     = 

OBJECT_NAME    = STARLINK-35958
OBJECT_ID      = 2025-280B
CENTER_NAME    = EARTH
REF_FRAME      = TEME
TIME_SYSTEM    = UTC
MEAN_ELEMENT_THEORY = SGP/SGP4

EPOCH          = 2025-12-10T16:00:01.999584
MEAN_MOTION    = 15.87203288
ECCENTRICITY   = .00039141
INCLINATION    = 69.9939
RA_OF_ASC_NODE = 204.7890
ARG_OF_PERICENTER = 271.5252
MEAN_ANOMALY   = 159.7958

EPHEMERIS_TYPE = 0
CLASSIFICATION_TYPE = U
NORAD_CAT_ID   = 66822
ELEMENT_SET_NO = 999
REV_AT_EPOCH   = 256
BSTAR          = -.6752443E-2
MEAN_MOTION_DOT = -.155802E-1
MEAN_MOTION_DDOT = 0

CCSDS_OMM_VERS = 2.0
CREATION_DATE  = 
ORIGINATOR     = 

OBJECT_NAME    = STARLINK-35957
OBJECT_ID      = 2025-280C
CENTER_NAME    = EARTH
REF_FRAME      = TEME
TIME_SYSTEM    = UTC
MEAN_ELEMENT_THEORY = SGP/SGP4

EPOCH          = 2025-12-10T16:00:01.999584
MEAN_MOTION    = 15.87244205
ECCENTRICITY   = .00039284
INCLINATION    = 69.9938
RA_OF_ASC_NODE = 204.7867
ARG_OF_PERICENTER = 271.3861
MEAN_ANOMALY   = 161.7087

EPHEMERIS_TYPE = 0
CLASSIFICATION_TYPE = U
NORAD_CAT_ID   = 66823
ELEMENT_SET_NO = 999
REV_AT_EPOCH   = 256
BSTAR          = -.67558235E-2
MEAN_MOTION_DOT = -.1561515E-1
MEAN_MOTION_DDOT = 0

CCSDS_OMM_VERS = 2.0
CREATION_DATE  = 
ORIGINATOR     = 

OBJECT_NAME    = STARLINK-35896
OBJECT_ID      = 2025-280D
CENTER_NAME    = EARTH
REF_FRAME      = TEME
TIME_SYSTEM    = UTC
MEAN_ELEMENT_THEORY = SGP/SGP4

EPOCH          = 2025-12-10T18:00:02.000160
MEAN_MOTION    = 15.87016307
ECCENTRICITY   = .0003777
INCLINATION    = 69.9936
RA_OF_ASC_NODE = 204.5440
ARG_OF_PERICENTER = 269.0036
MEAN_ANOMALY   = 281.9492

EPHEMERIS_TYPE = 0
CLASSIFICATION_TYPE = U
NORAD_CAT_ID   = 66824
ELEMENT_SET_NO = 999
REV_AT_EPOCH   = 258
BSTAR          = -.70024E-2
MEAN_MOTION_DOT = -.1595429E-1
MEAN_MOTION_DDOT = 0

CCSDS_OMM_VERS = 2.0
CREATION_DATE  = 
ORIGINATOR     = 

OBJECT_NAME    = STARLINK-35476
OBJECT_ID      = 2025-280E
CENTER_NAME    = EARTH
REF_FRAME      = TEME
TIME_SYSTEM    = UTC
MEAN_ELEMENT_THEORY = SGP/SGP4

EPOCH          = 2025-12-10T18:00:02.000160
MEAN_MOTION    = 15.87054454
ECCENTRICITY   = .0003729
INCLINATION    = 69.9936
RA_OF_ASC_NODE = 204.5418
ARG_OF_PERICENTER = 270.4103
MEAN_ANOMALY   = 282.4783

EPHEMERIS_TYPE = 0
CLASSIFICATION_TYPE = U
NORAD_CAT_ID   = 66825
ELEMENT_SET_NO = 999
REV_AT_EPOCH   = 243
BSTAR          = -.70194E-2
MEAN_MOTION_DOT = -.160143E-1
MEAN_MOTION_DDOT = 0

CCSDS_OMM_VERS = 2.0
CREATION_DATE  = 
ORIGINATOR     = 

OBJECT_NAME    = STARLINK-35898
OBJECT_ID      = 2025-280F
CENTER_NAME    = EARTH
REF_FRAME      = TEME
TIME_SYSTEM    = UTC
MEAN_ELEMENT_THEORY = SGP/SGP4

EPOCH          = 2025-12-10T18:00:02.000160
MEAN_MOTION    = 15.87096157
ECCENTRICITY   = .0003795
INCLINATION    = 69.9935
RA_OF_ASC_NODE = 204.5397
ARG_OF_PERICENTER = 269.5275
MEAN_ANOMALY   = 284.9348

EPHEMERIS_TYPE = 0
CLASSIFICATION_TYPE = U
NORAD_CAT_ID   = 66826
ELEMENT_SET_NO = 999
REV_AT_EPOCH   = 258
BSTAR          = -.7008E-2
MEAN_MOTION_DOT = -.1602116E-1
MEAN_MOTION_DDOT = 0

CCSDS_OMM_VERS = 2.0
CREATION_DATE  = 
ORIGINATOR     = 

OBJECT_NAME    = STARLINK-35959
OBJECT_ID      = 2025-280G
CENTER_NAME    = EARTH
REF_FRAME      = TEME
TIME_SYSTEM    = UTC
MEAN_ELEMENT_THEORY = SGP/SGP4

EPOCH          = 2025-12-10T18:00:02.000160
MEAN_MOTION    = 15.87138781
ECCENTRICITY   = .0003795
INCLINATION    = 69.9933
RA_OF_ASC_NODE = 204.5376
ARG_OF_PERICENTER = 269.3010
MEAN_ANOMALY   = 287.0125

EPHEMERIS_TYPE = 0
CLASSIFICATION_TYPE = U
NORAD_CAT_ID   = 66827
ELEMENT_SET_NO = 999
REV_AT_EPOCH   = 258
BSTAR          = -.70318E-2
MEAN_MOTION_DOT = -.1609866E-1
MEAN_MOTION_DDOT = 0

CCSDS_OMM_VERS = 2.0
CREATION_DATE  = 
ORIGINATOR     = 

OBJECT_NAME    = STARLINK-35982
OBJECT_ID      = 2025-280H
CENTER_NAME    = EARTH
REF_FRAME      = TEME
TIME_SYSTEM    = UTC
MEAN_ELEMENT_THEORY = SGP/SGP4

EPOCH          = 2025-12-10T18:00:02.000160
MEAN_MOTION    = 15.87215168
ECCENTRICITY   = .0003751
INCLINATION    = 69.9934
RA_OF_ASC_NODE = 204.5330
ARG_OF_PERICENTER = 270.7247
MEAN_ANOMALY   = 289.5054

EPHEMERIS_TYPE = 0
CLASSIFICATION_TYPE = U
NORAD_CAT_ID   = 66828
ELEMENT_SET_NO = 999
REV_AT_EPOCH   = 258
BSTAR          = -.70591E-2
MEAN_MOTION_DOT = -.1620676E-1
MEAN_MOTION_DDOT = 0

CCSDS_OMM_VERS = 2.0
CREATION_DATE  = 
ORIGINATOR     = 

OBJECT_NAME    = STARLINK-36084
OBJECT_ID      = 2025-280J
CENTER_NAME    = EARTH
REF_FRAME      = TEME
TIME_SYSTEM    = UTC
MEAN_ELEMENT_THEORY = SGP/SGP4

EPOCH          = 2025-12-10T18:00:02.000160
MEAN_MOTION    = 15.87176966
ECCENTRICITY   = .000381
INCLINATION    = 69.9933
RA_OF_ASC_NODE = 204.5351
ARG_OF_PERICENTER = 271.3474
MEAN_ANOMALY   = 286.9189

EPHEMERIS_TYPE = 0
CLASSIFICATION_TYPE = U
NORAD_CAT_ID   = 66829
ELEMENT_SET_NO = 999
REV_AT_EPOCH   = 242
BSTAR          = -.70441E-2
MEAN_MOTION_DOT = -.161503E-1
MEAN_MOTION_DDOT = 0

CCSDS_OMM_VERS = 2.0
CREATION_DATE  = 
ORIGINATOR     = 

OBJECT_NAME    = STARLINK-35881
OBJECT_ID      = 2025-280K
CENTER_NAME    = EARTH
REF_FRAME      = TEME
TIME_SYSTEM    = UTC
MEAN_ELEMENT_THEORY = SGP/SGP4

EPOCH          = 2025-12-10T18:00:02.000160
MEAN_MOTION    = 15.87264190
ECCENTRICITY   = .0003676
INCLINATION    = 69.9930
RA_OF_ASC_NODE = 204.5307
ARG_OF_PERICENTER = 269.9668
MEAN_ANOMALY   = 291.7888

EPHEMERIS_TYPE = 0
CLASSIFICATION_TYPE = U
NORAD_CAT_ID   = 66830
ELEMENT_SET_NO = 999
REV_AT_EPOCH   = 258
BSTAR          = -.70807E-2
MEAN_MOTION_DOT = -.1628378E-1
MEAN_MOTION_DDOT = 0

CCSDS_OMM_VERS = 2.0
CREATION_DATE  = 
ORIGINATOR     = 

OBJECT_NAME    = STARLINK-35788
OBJECT_ID      = 2025-280L
CENTER_NAME    = EARTH
REF_FRAME      = TEME
TIME_SYSTEM    = UTC
MEAN_ELEMENT_THEORY = SGP/SGP4

EPOCH          = 2025-12-10T18:00:02.000160
MEAN_MOTION    = 15.87306963
ECCENTRICITY   = .0003769
INCLINATION    = 69.9937
RA_OF_ASC_NODE = 204.5293
ARG_OF_PERICENTER = 268.9515
MEAN_ANOMALY   = 294.3620

EPHEMERIS_TYPE = 0
CLASSIFICATION_TYPE = U
NORAD_CAT_ID   = 66831
ELEMENT_SET_NO = 999
REV_AT_EPOCH   = 258
BSTAR          = -.7078E-2
MEAN_MOTION_DOT = -.1630974E-1
MEAN_MOTION_DDOT = 0

